{
  "norad_id": 55110,
  "name": "ASTROCAST-0401",
  "history": [
    {
      "epoch": "2026-04-12T12:49:35.874336Z",
      "apogee_km": 491.5755551491802,
      "perigee_km": 478.62682092457453,
      "latitude_deg": -3.707223923454411e-05,
      "longitude_deg": 161.59373338326805,
      "height_km": 487.2701235820293,
      "semi_major_axis_km": 6863.238188036877,
      "eccentricity": 0.00094334,
      "inclination_deg": 97.5534,
      "raan_deg": 194.7314,
      "arg_perigee_deg": 81.9518,
      "mean_anomaly_deg": 278.279,
      "mean_motion_rev_day": 15.26894937
    },
    {
      "epoch": "2026-04-14T12:00:39.951360Z",
      "apogee_km": 491.4541406125709,
      "perigee_km": 478.65003778398204,
      "latitude_deg": 1.93356065660711e-05,
      "longitude_deg": 173.87814229625022,
      "height_km": 486.57534382089545,
      "semi_major_axis_km": 6863.189089198277,
      "eccentricity": 0.00093281,
      "inclination_deg": 97.5538,
      "raan_deg": 196.7206,
      "arg_perigee_deg": 75.9632,
      "mean_anomaly_deg": 284.2643,
      "mean_motion_rev_day": 15.26911322
    },
    {
      "epoch": "2026-04-15T19:28:01.682112Z",
      "apogee_km": 491.40490373895955,
      "perigee_km": 478.63119955683214,
      "latitude_deg": 1.7692116611296092e-05,
      "longitude_deg": 62.07194658278333,
      "height_km": 486.13872526714204,
      "semi_major_axis_km": 6863.155051647896,
      "eccentricity": 0.0009306,
      "inclination_deg": 97.554,
      "raan_deg": 198.0468,
      "arg_perigee_deg": 72.1682,
      "mean_anomaly_deg": 288.0571,
      "mean_motion_rev_day": 15.26922681
    },
    {
      "epoch": "2026-04-16T00:11:07.871136Z",
      "apogee_km": 491.39340756504043,
      "perigee_km": 478.6326154856106,
      "latitude_deg": -2.2580510391938468e-05,
      "longitude_deg": -8.698612534211893,
      "height_km": 486.0708654853829,
      "semi_major_axis_km": 6863.150011525326,
      "eccentricity": 0.00092966,
      "inclination_deg": 97.554,
      "raan_deg": 198.2458,
      "arg_perigee_deg": 71.5549,
      "mean_anomaly_deg": 288.6699,
      "mean_motion_rev_day": 15.26924363
    },
    {
      "epoch": "2026-04-17T17:04:40.809216Z",
      "apogee_km": 491.26934098762194,
      "perigee_km": 478.6668955831192,
      "latitude_deg": 8.171047531629191e-06,
      "longitude_deg": 97.95884951596844,
      "height_km": 485.51396143656206,
      "semi_major_axis_km": 6863.10511828537,
      "eccentricity": 0.00091813,
      "inclination_deg": 97.5541,
      "raan_deg": 199.9699,
      "arg_perigee_deg": 66.3102,
      "mean_anomaly_deg": 293.9099,
      "mean_motion_rev_day": 15.26939345
    },
    {
      "epoch": "2026-04-18T11:57:04.624416Z",
      "apogee_km": 491.2118318668008,
      "perigee_km": 478.65652944890553,
      "latitude_deg": -2.559591218724168e-05,
      "longitude_deg": 174.8803261489786,
      "height_km": 485.2452028912493,
      "semi_major_axis_km": 6863.071180657853,
      "eccentricity": 0.0009147,
      "inclination_deg": 97.554,
      "raan_deg": 200.7657,
      "arg_perigee_deg": 63.8465,
      "mean_anomaly_deg": 296.3713,
      "mean_motion_rev_day": 15.26950671
    },
    {
      "epoch": "2026-04-19T19:24:23.590368Z",
      "apogee_km": 491.1387458848503,
      "perigee_km": 478.6494019365482,
      "latitude_deg": 2.444875093984525e-06,
      "longitude_deg": 63.08577466295245,
      "height_km": 484.84753139008694,
      "semi_major_axis_km": 6863.031073910699,
      "eccentricity": 0.0009099,
      "inclination_deg": 97.5538,
      "raan_deg": 202.092,
      "arg_perigee_deg": 59.9674,
      "mean_anomaly_deg": 300.2466,
      "mean_motion_rev_day": 15.26964056
    },
    {
      "epoch": "2026-04-20T04:50:35.057760Z",
      "apogee_km": 491.1141589377503,
      "perigee_km": 478.6624348810619,
      "latitude_deg": 3.716729860961113e-05,
      "longitude_deg": -78.45165545599964,
      "height_km": 484.74411597444555,
      "semi_major_axis_km": 6863.025296909406,
      "eccentricity": 0.00090716,
      "inclination_deg": 97.5537,
      "raan_deg": 202.4899,
      "arg_perigee_deg": 58.8198,
      "mean_anomaly_deg": 301.3929,
      "mean_motion_rev_day": 15.26965984
    },
    {
      "epoch": "2026-04-21T12:17:52.268928Z",
      "apogee_km": 490.98813904877807,
      "perigee_km": 478.6772067901011,
      "latitude_deg": 2.722616302101389e-05,
      "longitude_deg": 169.76122759977792,
      "height_km": 484.36211367249854,
      "semi_major_axis_km": 6862.969672919439,
      "eccentricity": 0.00089691,
      "inclination_deg": 97.5533,
      "raan_deg": 203.8163,
      "arg_perigee_deg": 54.7709,
      "mean_anomaly_deg": 305.4368,
      "mean_motion_rev_day": 15.26984548
    },
    {
      "epoch": "2026-04-22T05:35:52.253952Z",
      "apogee_km": 490.93082985047295,
      "perigee_km": 478.68568840132866,
      "latitude_deg": 9.393864324800103e-06,
      "longitude_deg": -89.71959507530808,
      "height_km": 484.16754895876755,
      "semi_major_axis_km": 6862.9452591259005,
      "eccentricity": 0.00089212,
      "inclination_deg": 97.5532,
      "raan_deg": 204.5459,
      "arg_perigee_deg": 52.5671,
      "mean_anomaly_deg": 307.6378,
      "mean_motion_rev_day": 15.26992696
    },
    {
      "epoch": "2026-04-23T11:28:45.981408Z",
      "apogee_km": 490.8452412996712,
      "perigee_km": 478.6860993805767,
      "latitude_deg": -2.1692440369596906e-05,
      "longitude_deg": -177.91045142329608,
      "height_km": 483.8589897849608,
      "semi_major_axis_km": 6862.902670340124,
      "eccentricity": 0.00088586,
      "inclination_deg": 97.5532,
      "raan_deg": 205.8061,
      "arg_perigee_deg": 49.002,
      "mean_anomaly_deg": 311.1983,
      "mean_motion_rev_day": 15.2700691
    },
    {
      "epoch": "2026-04-24T18:56:00.405312Z",
      "apogee_km": 490.71156074660394,
      "perigee_km": 478.7276405505527,
      "latitude_deg": -1.9525188881020423e-05,
      "longitude_deg": 70.31427690102306,
      "height_km": 483.5401306131384,
      "semi_major_axis_km": 6862.856600648578,
      "eccentricity": 0.0008731,
      "inclination_deg": 97.5535,
      "raan_deg": 207.1327,
      "arg_perigee_deg": 44.6544,
      "mean_anomaly_deg": 315.5396,
      "mean_motion_rev_day": 15.27022286
    },
    {
      "epoch": "2026-04-25T18:31:25.324896Z",
      "apogee_km": 490.60431604219775,
      "perigee_km": 478.7440057938984,
      "latitude_deg": 1.299701619934269e-05,
      "longitude_deg": 76.48652341187638,
      "height_km": 483.30486931033676,
      "semi_major_axis_km": 6862.811160918048,
      "eccentricity": 0.0008641,
      "inclination_deg": 97.5538,
      "raan_deg": 208.1276,
      "arg_perigee_deg": 41.3279,
      "mean_anomaly_deg": 318.8612,
      "mean_motion_rev_day": 15.27037452
    },
    {
      "epoch": "2026-04-26T18:06:49.402944Z",
      "apogee_km": 490.50640819979617,
      "perigee_km": 478.73856000202795,
      "latitude_deg": -2.5976522099373005e-05,
      "longitude_deg": 82.6622959922611,
      "height_km": 483.08210301164314,
      "semi_major_axis_km": 6862.759484100911,
      "eccentricity": 0.00085737,
      "inclination_deg": 97.554,
      "raan_deg": 209.1225,
      "arg_perigee_deg": 38.18,
      "mean_anomaly_deg": 322.0044,
      "mean_motion_rev_day": 15.270547
    },
    {
      "epoch": "2026-04-27T19:16:34.087584Z",
      "apogee_km": 490.3955995768356,
      "perigee_km": 478.7482100236075,
      "latitude_deg": -2.7404080632380988e-05,
      "longitude_deg": 65.25392741939125,
      "height_km": 482.87703463734533,
      "semi_major_axis_km": 6862.708904800221,
      "eccentricity": 0.0008486,
      "inclination_deg": 97.5543,
      "raan_deg": 210.1837,
      "arg_perigee_deg": 34.8254,
      "mean_anomaly_deg": 325.3538,
      "mean_motion_rev_day": 15.27071582
    },
    {
      "epoch": "2026-04-28T18:51:56.261376Z",
      "apogee_km": 490.29170674822944,
      "perigee_km": 478.75968835126696,
      "latitude_deg": -3.157326393776529e-05,
      "longitude_deg": 71.43755184640666,
      "height_km": 482.6936085403463,
      "semi_major_axis_km": 6862.6626975497475,
      "eccentricity": 0.0008402,
      "inclination_deg": 97.5544,
      "raan_deg": 211.1785,
      "arg_perigee_deg": 31.4524,
      "mean_anomaly_deg": 328.7215,
      "mean_motion_rev_day": 15.27087005
    },
    {
      "epoch": "2026-04-29T16:52:56.239680Z",
      "apogee_km": 490.18552356261716,
      "perigee_km": 478.7867065684932,
      "latitude_deg": 6.906071113184572e-06,
      "longitude_deg": 101.21194537900105,
      "height_km": 482.5645978341558,
      "semi_major_axis_km": 6862.623115065555,
      "eccentricity": 0.0008305,
      "inclination_deg": 97.5546,
      "raan_deg": 212.107,
      "arg_perigee_deg": 28.4921,
      "mean_anomaly_deg": 331.677,
      "mean_motion_rev_day": 15.27100217
    },
    {
      "epoch": "2026-04-30T05:27:47.349504Z",
      "apogee_km": 490.1348897810649,
      "perigee_km": 478.78868070547105,
      "latitude_deg": 4.136640882876393e-05,
      "longitude_deg": -87.4870945155178,
      "height_km": 482.48169325294526,
      "semi_major_axis_km": 6862.598785243268,
      "eccentricity": 0.00082667,
      "inclination_deg": 97.5546,
      "raan_deg": 212.6376,
      "arg_perigee_deg": 26.7003,
      "mean_anomaly_deg": 333.466,
      "mean_motion_rev_day": 15.27108338
    },
    {
      "epoch": "2026-05-02T04:38:26.822400Z",
      "apogee_km": 489.9068657877433,
      "perigee_km": 478.81706745768133,
      "latitude_deg": -1.991191046544725e-05,
      "longitude_deg": -75.09937544322919,
      "height_km": 482.2404155900159,
      "semi_major_axis_km": 6862.498966622712,
      "eccentricity": 0.000808,
      "inclination_deg": 97.5545,
      "raan_deg": 214.6273,
      "arg_perigee_deg": 19.9698,
      "mean_anomaly_deg": 340.1855,
      "mean_motion_rev_day": 15.27141657
    }
  ]
}